{"type": "FeatureCollection", "features": [ {"type": "Feature", "properties": {"norad_id": 34736, "name": "COSMOS 2251 DEB", "group": "cosmos-2251-debris", "lat": -40.68051255097289, "lon": 18.826809166108045, "alt_km": 414.6894284601012, "timestamp": "2025-12-14T03:55:53.183019+00:00", "meta": {"OBJECT_NAME": "COSMOS 2251 DEB", "OBJECT_ID": "1993-036ZE", "EPOCH": "2025-12-13T04:51:31.894272", "MEAN_MOTION": 15.48162502, "ECCENTRICITY": 0.00174073, "INCLINATION": 74.0007, "RA_OF_ASC_NODE": 35.2137, "ARG_OF_PERICENTER": 345.6455, "MEAN_ANOMALY": 14.426, "EPHEMERIS_TYPE": 0, "CLASSIFICATION_TYPE": "U", "NORAD_CAT_ID": 34736, "ELEMENT_SET_NO": 999, "REV_AT_EPOCH": 88455, "BSTAR": 0.0099245604, "MEAN_MOTION_DOT": 0.00563408, "MEAN_MOTION_DDOT": 0}, "tle": {"line1": "1 34736U 93036ZE  25347.20245248  .00563408  00000+0  99246-2 0  9999", "line2": "2 34736  74.0007  35.2137 0017407 345.6455  14.4260 15.48162502884556"}}, "geometry": {"type": "Point", "coordinates": [18.826809166108045, -40.68051255097289]}}, {"type": "Feature", "properties": {"norad_id": 34738, "name": "COSMOS 2251 DEB", "group": "cosmos-2251-debris", "lat": 56.43360504625211, "lon": 166.1997503980763, "alt_km": 755.1470925858621, "timestamp": "2025-12-14T03:55:53.183029+00:00", "meta": {"OBJECT_NAME": "COSMOS 2251 DEB", "OBJECT_ID": "1993-036ZG", "EPOCH": "2025-12-13T05:14:01.711104", "MEAN_MOTION": 14.46304105, "ECCENTRICITY": 0.00473935, "INCLINATION": 74.0145, "RA_OF_ASC_NODE": 142.3719, "ARG_OF_PERICENTER": 288.5529, "MEAN_ANOMALY": 249.0336, "EPHEMERIS_TYPE": 0, "CLASSIFICATION_TYPE": "U", "NORAD_CAT_ID": 34738, "ELEMENT_SET_NO": 999, "REV_AT_EPOCH": 87865, "BSTAR": 0.00050060224, "MEAN_MOTION_DOT": 1.792e-05, "MEAN_MOTION_DDOT": 0}, "tle": {"line1": "1 34738U 93036ZG  25347.21807536  .00001792  00000+0  50060-3 0  9991", "line2": "2 34738  74.0145 142.3719 0047393 288.5529 249.0336 14.46304105878659"}}, "geometry": {"type": "Point", "coordinates": [166.1997503980763, 56.43360504625211]}}, {"type": "Feature", "properties": {"norad_id": 34750, "name": "COSMOS 2251 DEB", "group": "cosmos-2251-debris", "lat": -60.926791122017576, "lon": 168.21710776752133, "alt_km": 717.523494022138, "timestamp": "2025-12-14T03:55:53.183040+00:00", "meta": {"OBJECT_NAME": "COSMOS 2251 DEB", "OBJECT_ID": "1993-036ZU", "EPOCH": "2025-12-12T18:16:50.437632", "MEAN_MOTION": 14.61323696, "ECCENTRICITY": 0.00388342, "INCLINATION": 74.1085, "RA_OF_ASC_NODE": 201.7093, "ARG_OF_PERICENTER": 154.7653, "MEAN_ANOMALY": 326.4831, "EPHEMERIS_TYPE": 0, "CLASSIFICATION_TYPE": "U", "NORAD_CAT_ID": 34750, "ELEMENT_SET_NO": 999, "REV_AT_EPOCH": 88231, "BSTAR": 0.0015269949, "MEAN_MOTION_DOT": 7.603e-05, "MEAN_MOTION_DDOT": 0}, "tle": {"line1": "1 34750U 93036ZU  25346.76169488  .00007603  00000+0  15270-2 0  9991", "line2": "2 34750  74.1085 201.7093 0038834 154.7653 326.4831 14.61323696882315"}}, "geometry": {"type": "Point", "coordinates": [168.21710776752133, -60.926791122017576]}}, {"type": "Feature", "properties": {"norad_id": 34752, "name": "COSMOS 2251 DEB", "group": "cosmos-2251-debris", "lat": -73.6322381403943, "lon": -79.73878933660261, "alt_km": 601.8732238564871, "timestamp": "2025-12-14T03:55:53.183050+00:00", "meta": {"OBJECT_NAME": "COSMOS 2251 DEB", "OBJECT_ID": "1993-036ZW", "EPOCH": "2025-12-13T07:30:37.628928", "MEAN_MOTION": 14.99952712, "ECCENTRICITY": 0.004774, "INCLINATION": 74.0137, "RA_OF_ASC_NODE": 359.4383, "ARG_OF_PERICENTER": 127.7446, "MEAN_ANOMALY": 232.8081, "EPHEMERIS_TYPE": 0, "CLASSIFICATION_TYPE": "U", "NORAD_CAT_ID": 34752, "ELEMENT_SET_NO": 999, "REV_AT_EPOCH": 89858, "BSTAR": 0.0015661966, "MEAN_MOTION_DOT": 0.00019946, "MEAN_MOTION_DDOT": 0}, "tle": {"line1": "1 34752U 93036ZW  25347.31293552  .00019946  00000+0  15662-2 0  9993", "line2": "2 34752  74.0137 359.4383 0047740 127.7446 232.8081 14.99952712898584"}}, "geometry": {"type": "Point", "coordinates": [-79.73878933660261, -73.6322381403943]}}, {"type": "Feature", "properties": {"norad_id": 34754, "name": "COSMOS 2251 DEB", "group": "cosmos-2251-debris", "lat": -54.473113357626964, "lon": -158.6755442104804, "alt_km": 747.0252253791359, "timestamp": "2025-12-14T03:55:53.183060+00:00", "meta": {"OBJECT_NAME": "COSMOS 2251 DEB", "OBJECT_ID": "1993-036ZY", "EPOCH": "2025-12-12T19:23:10.948704", "MEAN_MOTION": 14.40481938, "ECCENTRICITY": 0.00295669, "INCLINATION": 74.0302, "RA_OF_ASC_NODE": 227.4767, "ARG_OF_PERICENTER": 343.5565, "MEAN_ANOMALY": 129.6269, "EPHEMERIS_TYPE": 0, "CLASSIFICATION_TYPE": "U", "NORAD_CAT_ID": 34754, "ELEMENT_SET_NO": 999, "REV_AT_EPOCH": 88134, "BSTAR": 0.00032285849, "MEAN_MOTION_DOT": 1.006e-05, "MEAN_MOTION_DDOT": 0}, "tle": {"line1": "1 34754U 93036ZY  25346.80776561  .00001006  00000+0  32286-3 0  9994", "line2": "2 34754  74.0302 227.4767 0029566 343.5565 129.6269 14.40481938881346"}}, "geometry": {"type": "Point", "coordinates": [-158.6755442104804, -54.473113357626964]}}, {"type": "Feature", "properties": {"norad_id": 34755, "name": "COSMOS 2251 DEB", "group": "cosmos-2251-debris", "lat": -47.06318382766785, "lon": -90.3146775053147, "alt_km": 772.876022961992, "timestamp": "2025-12-14T03:55:53.183070+00:00", "meta": {"OBJECT_NAME": "COSMOS 2251 DEB", "OBJECT_ID": "1993-036ZZ", "EPOCH": "2025-12-13T03:21:12.314304", "MEAN_MOTION": 13.50561141, "ECCENTRICITY": 0.04082739, "INCLINATION": 73.9258, "RA_OF_ASC_NODE": 289.3819, "ARG_OF_PERICENTER": 309.135, "MEAN_ANOMALY": 63.7698, "EPHEMERIS_TYPE": 0, "CLASSIFICATION_TYPE": "U", "NORAD_CAT_ID": 34755, "ELEMENT_SET_NO": 999, "REV_AT_EPOCH": 82529, "BSTAR": 0.0020583927, "MEAN_MOTION_DOT": 2.198e-05, "MEAN_MOTION_DDOT": 0}, "tle": {"line1": "1 34755U 93036ZZ  25347.13972586  .00002198  00000+0  20584-2 0  9997", "line2": "2 34755  73.9258 289.3819 0408273 309.1350  63.7698 13.50561141825297"}}, "geometry": {"type": "Point", "coordinates": [-90.3146775053147, -47.06318382766785]}}, {"type": "Feature", "properties": {"norad_id": 34756, "name": "COSMOS 2251 DEB", "group": "cosmos-2251-debris", "lat": -57.039844178478084, "lon": 75.77023323954855, "alt_km": 812.7360520745624, "timestamp": "2025-12-14T03:55:53.183080+00:00", "meta": {"OBJECT_NAME": "COSMOS 2251 DEB", "OBJECT_ID": "1993-036AAA", "EPOCH": "2025-12-13T07:08:15.493056", "MEAN_MOTION": 13.67245001, "ECCENTRICITY": 0.03450794, "INCLINATION": 74.0027, "RA_OF_ASC_NODE": 103.4524, "ARG_OF_PERICENTER": 339.1446, "MEAN_ANOMALY": 19.587, "EPHEMERIS_TYPE": 0, "CLASSIFICATION_TYPE": "U", "NORAD_CAT_ID": 34756, "ELEMENT_SET_NO": 999, "REV_AT_EPOCH": 83429, "BSTAR": 0.0013388899, "MEAN_MOTION_DOT": 1.674e-05, "MEAN_MOTION_DDOT": 0}, "tle": {"line1": "1 34756U 93036AAA 25347.29740154  .00001674  00000+0  13389-2 0  9992", "line2": "2 34756  74.0027 103.4524 0345079 339.1446  19.5870 13.67245001834299"}}, "geometry": {"type": "Point", "coordinates": [75.77023323954855, -57.039844178478084]}}, {"type": "Feature", "properties": {"norad_id": 34758, "name": "COSMOS 2251 DEB", "group": "cosmos-2251-debris", "lat": 3.334303336263146, "lon": -61.84355140997433, "alt_km": 883.2713955414329, "timestamp": "2025-12-14T03:55:53.183091+00:00", "meta": {"OBJECT_NAME": "COSMOS 2251 DEB", "OBJECT_ID": "1993-036AAC", "EPOCH": "2025-12-13T06:42:03.261888", "MEAN_MOTION": 13.58071022, "ECCENTRICITY": 0.03812876, "INCLINATION": 74.1075, "RA_OF_ASC_NODE": 298.6286, "ARG_OF_PERICENTER": 62.2206, "MEAN_ANOMALY": 301.7014, "EPHEMERIS_TYPE": 0, "CLASSIFICATION_TYPE": "U", "NORAD_CAT_ID": 34758, "ELEMENT_SET_NO": 999, "REV_AT_EPOCH": 82917, "BSTAR": 0.0019505308, "MEAN_MOTION_DOT": 2.25e-05, "MEAN_MOTION_DDOT": 0}, "tle": {"line1": "1 34758U 93036AAC 25347.27920442  .00002250  00000+0  19505-2 0  9999", "line2": "2 34758  74.1075 298.6286 0381287  62.2206 301.7014 13.58071022829173"}}, "geometry": {"type": "Point", "coordinates": [-61.84355140997433, 3.334303336263146]}}, {"type": "Feature", "properties": {"norad_id": 34760, "name": "COSMOS 2251 DEB", "group": "cosmos-2251-debris", "lat": -30.47408340487286, "lon": 129.49918900645844, "alt_km": 885.3793888524397, "timestamp": "2025-12-14T03:55:53.183101+00:00", "meta": {"OBJECT_NAME": "COSMOS 2251 DEB", "OBJECT_ID": "1993-036AAE", "EPOCH": "2025-12-11T20:57:04.029120", "MEAN_MOTION": 14.19565488, "ECCENTRICITY": 0.0096741, "INCLINATION": 74.0637, "RA_OF_ASC_NODE": 303.9064, "ARG_OF_PERICENTER": 356.2172, "MEAN_ANOMALY": 33.6085, "EPHEMERIS_TYPE": 0, "CLASSIFICATION_TYPE": "U", "NORAD_CAT_ID": 34760, "ELEMENT_SET_NO": 999, "REV_AT_EPOCH": 86676, "BSTAR": 0.0010971, "MEAN_MOTION_DOT": 2.4e-05, "MEAN_MOTION_DDOT": 0}, "tle": {"line1": "1 34760U 93036AAE 25345.87296330  .00002400  00000+0  10971-2 0  9993", "line2": "2 34760  74.0637 303.9064 0096741 356.2172  33.6085 14.19565488866766"}}, "geometry": {"type": "Point", "coordinates": [129.49918900645844, -30.47408340487286]}}, {"type": "Feature", "properties": {"norad_id": 34761, "name": "COSMOS 2251 DEB", "group": "cosmos-2251-debris", "lat": -44.75099167020155, "lon": -163.3389841132412, "alt_km": 796.6103774857756, "timestamp": "2025-12-14T03:55:53.183111+00:00", "meta": {"OBJECT_NAME": "COSMOS 2251 DEB", "OBJECT_ID": "1993-036AAF", "EPOCH": "2025-12-12T19:09:27.421920", "MEAN_MOTION": 14.38049473, "ECCENTRICITY": 0.00364098, "INCLINATION": 74.0297, "RA_OF_ASC_NODE": 2.6837, "ARG_OF_PERICENTER": 36.7521, "MEAN_ANOMALY": 323.6119, "EPHEMERIS_TYPE": 0, "CLASSIFICATION_TYPE": "U", "NORAD_CAT_ID": 34761, "ELEMENT_SET_NO": 999, "REV_AT_EPOCH": 87650, "BSTAR": 0.0009152545, "MEAN_MOTION_DOT": 2.767e-05, "MEAN_MOTION_DDOT": 0}, "tle": {"line1": "1 34761U 93036AAF 25346.79823405  .00002767  00000+0  91525-3 0  9996", "line2": "2 34761  74.0297   2.6837 0036409  36.7521 323.6119 14.38049473876508"}}, "geometry": {"type": "Point", "coordinates": [-163.3389841132412, -44.75099167020155]}}]}